GLOBALSTAR M035         
1 25851U 99037A   25200.91112646 -.00000108  00000+0 -16571-2 0  9990
2 25851  51.9983 341.9891 0013862  37.6962 137.0485 11.04538885 99870
GLOBALSTAR M032         
1 25852U 99037B   25200.93513145 -.00000073  00000+0 -19565-3 0  9990
2 25852  51.9926 164.8721 0012013 222.3932 137.5940 11.19062190138455
GLOBALSTAR M051         
1 25853U 99037C   25200.78442182 -.00000070  00000+0  46688-4 0  9999
2 25853  51.9822 322.2571 0000291 194.9298 165.1504 11.42204550136116
GLOBALSTAR M030         
1 25854U 99037D   25200.88061707 -.00000049  00000+0  54483-3 0  9998
2 25854  51.9872 126.0504 0003343  96.0138 264.1060 11.55109963153824
GLOBALSTAR M048         
1 25872U 99041A   25200.93746082 -.00000054  00000+0  43101-3 0  9996
2 25872  51.9353 258.1896 0013660 240.5830 290.6609 11.33858150128692
GLOBALSTAR M026         
1 25873U 99041B   25200.65308608 -.00000015  00000+0  18065-2 0  9991
2 25873  52.0017 100.1820 0002138 344.6938  45.3611 11.06845129152088
GLOBALSTAR M043         
1 25874U 99041C   25200.75458069 -.00000085  00000+0 -51145-3 0  9995
2 25874  51.9427   7.5626 0013422  10.8801   2.1120 11.25694389126544
GLOBALSTAR M028         
1 25875U 99041D   25200.84208568 -.00000106  00000+0 -36570-4 0  9993
2 25875  51.9626  95.6935 0063367 141.7420 218.7961 12.50584434194261
